              M50 Cartesian                         J2K Cartesian  
    -----------------------------------       --------------------------------
     X    =        1460655.04                 X    =          362811.47
     Y    =       19930592.56  feet           Y    =         6079362.90  meter
     Z    =        9747934.67                 Z    =         2973132.27
     XDOT =     -17795.267744                 XDOT =       -5424.880557
     YDOT =      -6776.469081  feet/sec       YDOT =       -2126.126804  meter/sec
     ZDOT =      16468.224820                 ZDOT =        4993.164631
 
              TDR Cartesian                         TDR Cartesian  
    -----------------------------------       --------------------------------
     X    =       16768652.32                 X    =         5111085.23
     Y    =      -10864154.29  feet           Y    =        -3311394.23  meter
     Z    =        9755342.85                 Z    =         2973428.50
     XDOT =       1936.419521                 XDOT =         590.220670
     YDOT =      17721.697791  feet/sec       YDOT =        5401.573487  meter/sec
     ZDOT =      16354.064017                 ZDOT =        4984.718712
  
  
    The mean element set is posted at the UTC for which position is
    just north of the next ascending node relative to the above
    vector time
 
 
    TWO LINE MEAN ELEMENT SET
  
    ISS
    1 25544U 98067A   16095.85336152  .00016717  00000-0  10270-3 0  9203
    2 25544  51.6421  63.7983 0002587  21.1405 338.9854 15.54404751 33576
  
  
    Satellite: ISS
    Catalog Number: 25544
    Epoch time:      16095.85336152   =   yrday.fracday
    Element set:     920
    Inclination:       51.6421  deg
    RA of node:        63.7983  deg
    Eccentricity:     .0002587     
    Arg of perigee:    21.1405  deg
    Mean anomaly:     338.9854  deg
    Mean motion:   15.54404751  rev/day
    Decay rate:    1.67170E-04  rev/day^2
    Epoch rev:            3357
    Checksum:              313
 
             </PRE>
           </TD>
        </TR>
    </TABLE>
    
    <table align="center" border="0" width="600" cellpadding="0" cellspacing="0">
      <tr>
        <td align="center" valign="top"><hr size="1" width="600" noshade="noshade" />
        <font face="Arial,helvetica" size="-2">Curator: <a href="/cgi-bin/comment.cgi?jsc-hsfwebma@mail.nasa.gov">Kim 
          Dismukes</a> | Responsible NASA Official: <a href="/cgi-bin/comment.cgi?jsc-hsfwebma@mail.nasa.gov">Amiko Kauderer</a> | Updated: 06/08/2009<br />
        <a href="http://www.nasa.gov/about/highlights/HP_Privacy.html">Privacy Policy and Important Notices</a></font></td>
      </tr>
    </table>
    </body>
    </html>
